[{"OBJECT_NAME":"OBJECT B","OBJECT_ID":"2024-092B","EPOCH":"2026-03-09T22:35:16.756224","MEAN_MOTION":15.26654665,"ECCENTRICITY":0.00097063,"INCLINATION":97.6334,"RA_OF_ASC_NODE":195.5822,"ARG_OF_PERICENTER":166.5945,"MEAN_ANOMALY":193.5553,"EPHEMERIS_TYPE":0,"CLASSIFICATION_TYPE":"U","NORAD_CAT_ID":59774,"ELEMENT_SET_NO":999,"REV_AT_EPOCH":10038,"BSTAR":0.00052893964,"MEAN_MOTION_DOT":0.00013825,"MEAN_MOTION_DDOT":0},{"OBJECT_NAME":"STARLINK-36196","OBJECT_ID":"2025-299F","EPOCH":"2026-03-09T22:00:01.999584","MEAN_MOTION":15.27593143,"ECCENTRICITY":0.0002044,"INCLINATION":43.0008,"RA_OF_ASC_NODE":167.7887,"ARG_OF_PERICENTER":283.4404,"MEAN_ANOMALY":308.9963,"EPHEMERIS_TYPE":0,"CLASSIFICATION_TYPE":"U","NORAD_CAT_ID":67107,"ELEMENT_SET_NO":999,"REV_AT_EPOCH":575,"BSTAR":-0.00053995244,"MEAN_MOTION_DOT":-0.00015097,"MEAN_MOTION_DDOT":0}]
